{"timestamp": "2025-03-02T19:01:21.608120", "data": [ {"OBJECT_NAME": "COSMOS 2534 (758)", "OBJECT_ID": "2019-030A", "EPOCH": "2025-03-02T10:43:06.429216", "MEAN_MOTION": 2.13101999, "ECCENTRICITY": 0.0009475, "INCLINATION": 64.369, "RA_OF_ASC_NODE": 208.5068, "ARG_OF_PERICENTER": 285.2496, "MEAN_ANOMALY": 109.8333, "EPHEMERIS_TYPE": 0, "CLASSIFICATION_TYPE": "U", "NORAD_CAT_ID": 44299, "ELEMENT_SET_NO": 999, "REV_AT_EPOCH": 4486, "BSTAR": 0, "MEAN_MOTION_DOT": 5.5e-07, "MEAN_MOTION_DDOT": 0, "line1": "1 44299U 19030A   25061.44660219  .00000055  00000+0  00000+0 0  9995", "line2": "2 44299  64.3690 208.5068 0009475 285.2496 109.8333  2.13101999 44862"}, {"OBJECT_NAME": "BEIDOU-3 IGSO-2 (C39)", "OBJECT_ID": "2019-035A", "EPOCH": "2025-03-01T16:06:26.733600", "MEAN_MOTION": 1.00258978, "ECCENTRICITY": 0.0036558, "INCLINATION": 55.1998, "RA_OF_ASC_NODE": 163.0112, "ARG_OF_PERICENTER": 201.0236, "MEAN_ANOMALY": 154.3156, "EPHEMERIS_TYPE": 0, "CLASSIFICATION_TYPE": "U", "NORAD_CAT_ID": 44337, "ELEMENT_SET_NO": 999, "REV_AT_EPOCH": 2092, "BSTAR": 0, "MEAN_MOTION_DOT": -1.46e-06, "MEAN_MOTION_DDOT": 0, "line1": "1 44337U 19035A   25060.67114275 -.00000146  00000+0  00000+0 0  9995", "line2": "2 44337  55.1998 163.0112 0036558 201.0236 154.3156  1.00258978 20923"}, {"OBJECT_NAME": "GPS BIII-2  (PRN 18)", "OBJECT_ID": "2019-056A", "EPOCH": "2025-02-28T05:43:28.835616", "MEAN_MOTION": 2.00560179, "ECCENTRICITY": 0.0048912, "INCLINATION": 55.8092, "RA_OF_ASC_NODE": 349.9509, "ARG_OF_PERICENTER": 194.2354, "MEAN_ANOMALY": 337.4464, "EPHEMERIS_TYPE": 0, "CLASSIFICATION_TYPE": "U", "NORAD_CAT_ID": 44506, "ELEMENT_SET_NO": 999, "REV_AT_EPOCH": 4056, "BSTAR": 0, "MEAN_MOTION_DOT": -7.7e-07, "MEAN_MOTION_DDOT": 0, "line1": "1 44506U 19056A   25059.23852819 -.00000077  00000+0  00000+0 0  9992", "line2": "2 44506  55.8092 349.9509 0048912 194.2354 337.4464  2.00560179 40567"}, {"OBJECT_NAME": "BEIDOU-3 M24 (C46)", "OBJECT_ID": "2019-061A", "EPOCH": "2025-02-28T15:33:06.081984", "MEAN_MOTION": 1.86228897, "ECCENTRICITY": 0.0008182, "INCLINATION": 54.4203, "RA_OF_ASC_NODE": 198.6987, "ARG_OF_PERICENTER": 15.6065, "MEAN_ANOMALY": 344.3669, "EPHEMERIS_TYPE": 0, "CLASSIFICATION_TYPE": "U", "NORAD_CAT_ID": 44542, "ELEMENT_SET_NO": 999, "REV_AT_EPOCH": 3697, "BSTAR": 0, "MEAN_MOTION_DOT": 3.4e-07, "MEAN_MOTION_DDOT": 0, "line1": "1 44542U 19061A   25059.64798706  .00000034  00000+0  00000+0 0  9999", "line2": "2 44542  54.4203 198.6987 0008182  15.6065 344.3669  1.86228897 36970"}, {"OBJECT_NAME": "BEIDOU-3 M23 (C45)", "OBJECT_ID": "2019-061B", "EPOCH": "2025-03-02T08:37:04.656288", "MEAN_MOTION": 1.86228984, "ECCENTRICITY": 0.0004728, "INCLINATION": 54.4188, "RA_OF_ASC_NODE": 198.6096, "ARG_OF_PERICENTER": 10.9039, "MEAN_ANOMALY": 328.9342, "EPHEMERIS_TYPE": 0, "CLASSIFICATION_TYPE": "U", "NORAD_CAT_ID": 44543, "ELEMENT_SET_NO": 999, "REV_AT_EPOCH": 3700, "BSTAR": 0, "MEAN_MOTION_DOT": 4.4e-07, "MEAN_MOTION_DDOT": 0, "line1": "1 44543U 19061B   25061.35908167  .00000044  00000+0  00000+0 0  9996", "line2": "2 44543  54.4188 198.6096 0004728  10.9039 328.9342  1.86228984 37003"}, {"OBJECT_NAME": "BEIDOU-3 IGSO-3 (C40)", "OBJECT_ID": "2019-073A", "EPOCH": "2025-03-02T00:23:07.884672", "MEAN_MOTION": 1.00278242, "ECCENTRICITY": 0.0041604, "INCLINATION": 55.6074, "RA_OF_ASC_NODE": 285.9808, "ARG_OF_PERICENTER": 182.025, "MEAN_ANOMALY": 178.028, "EPHEMERIS_TYPE": 0, "CLASSIFICATION_TYPE": "U", "NORAD_CAT_ID": 44709, "ELEMENT_SET_NO": 999, "REV_AT_EPOCH": 1970, "BSTAR": 0, "MEAN_MOTION_DOT": -1.54e-06, "MEAN_MOTION_DDOT": 0, "line1": "1 44709U 19073A   25061.01606348 -.00000154  00000+0  00000+0 0  9995", "line2": "2 44709  55.6074 285.9808 0041604 182.0250 178.0280  1.00278242 19705"}, {"OBJECT_NAME": "BEIDOU-3 M22 (C44)", "OBJECT_ID": "2019-078A", "EPOCH": "2025-03-02T02:27:35.028864", "MEAN_MOTION": 1.86231863, "ECCENTRICITY": 0.0007143, "INCLINATION": 54.3555, "RA_OF_ASC_NODE": 316.384, "ARG_OF_PERICENTER": 26.4396, "MEAN_ANOMALY": 333.6542, "EPHEMERIS_TYPE": 0, "CLASSIFICATION_TYPE": "U", "NORAD_CAT_ID": 44793, "ELEMENT_SET_NO": 999, "REV_AT_EPOCH": 3586, "BSTAR": 0, "MEAN_MOTION_DOT": -5.4e-07, "MEAN_MOTION_DDOT": 0, "line1": "1 44793U 19078A   25061.10248876 -.00000054  00000+0  00000+0 0  9990", "line2": "2 44793  54.3555 316.3840 0007143  26.4396 333.6542  1.86231863 35862"}, {"OBJECT_NAME": "BEIDOU-3 M21 (C43)", "OBJECT_ID": "2019-078B", "EPOCH": "2025-03-02T05:36:13.943808", "MEAN_MOTION": 1.86227567, "ECCENTRICITY": 0.0005192, "INCLINATION": 54.3287, "RA_OF_ASC_NODE": 316.3501, "ARG_OF_PERICENTER": 20.4223, "MEAN_ANOMALY": 339.6555, "EPHEMERIS_TYPE": 0, "CLASSIFICATION_TYPE": "U", "NORAD_CAT_ID": 44794, "ELEMENT_SET_NO": 999, "REV_AT_EPOCH": 3586, "BSTAR": 0, "MEAN_MOTION_DOT": -5.4e-07, "MEAN_MOTION_DDOT": 0, "line1": "1 44794U 19078B   25061.23349472 -.00000054  00000+0  00000+0 0  9999", "line2": "2 44794  54.3287 316.3501 0005192  20.4223 339.6555  1.86227567 35860"}, {"OBJECT_NAME": "COSMOS 2544 (759)", "OBJECT_ID": "2019-088A", "EPOCH": "2025-03-02T10:07:21.500832", "MEAN_MOTION": 2.13101985, "ECCENTRICITY": 0.0015601, "INCLINATION": 65.309, "RA_OF_ASC_NODE": 89.5053, "ARG_OF_PERICENTER": 259.6153, "MEAN_ANOMALY": 100.274, "EPHEMERIS_TYPE": 0, "CLASSIFICATION_TYPE": "U", "NORAD_CAT_ID": 44850, "ELEMENT_SET_NO": 999, "REV_AT_EPOCH": 4064, "BSTAR": 0, "MEAN_MOTION_DOT": 3.7e-07, "MEAN_MOTION_DDOT": 0, "line1": "1 44850U 19088A   25061.42177663  .00000037  00000+0  00000+0 0  9995", "line2": "2 44850  65.3090  89.5053 0015601 259.6153 100.2740  2.13101985 40648"}, {"OBJECT_NAME": "BEIDOU-3 M19 (C41)", "OBJECT_ID": "2019-090A", "EPOCH": "2025-02-28T14:14:32.055648", "MEAN_MOTION": 1.86231384, "ECCENTRICITY": 0.002006, "INCLINATION": 56.1414, "RA_OF_ASC_NODE": 78.4955, "ARG_OF_PERICENTER": 285.0846, "MEAN_ANOMALY": 248.2158, "EPHEMERIS_TYPE": 0, "CLASSIFICATION_TYPE": "U", "NORAD_CAT_ID": 44864, "ELEMENT_SET_NO": 999, "REV_AT_EPOCH": 3540, "BSTAR": 0, "MEAN_MOTION_DOT": 2.5e-07, "MEAN_MOTION_DDOT": 0, "line1": "1 44864U 19090A   25059.59342657  .00000025  00000+0  00000+0 0  9992", "line2": "2 44864  56.1414  78.4955 0020060 285.0846 248.2158  1.86231384 35406"}, {"OBJECT_NAME": "BEIDOU-3 M20 (C42)", "OBJECT_ID": "2019-090B", "EPOCH": "2025-03-02T10:09:57.030336", "MEAN_MOTION": 1.86231274, "ECCENTRICITY": 0.001763, "INCLINATION": 56.145, "RA_OF_ASC_NODE": 78.468, "ARG_OF_PERICENTER": 296.911, "MEAN_ANOMALY": 113.0961, "EPHEMERIS_TYPE": 0, "CLASSIFICATION_TYPE": "U", "NORAD_CAT_ID": 44865, "ELEMENT_SET_NO": 999, "REV_AT_EPOCH": 3542, "BSTAR": 0, "MEAN_MOTION_DOT": 8e-08, "MEAN_MOTION_DDOT": 0, "line1": "1 44865U 19090B   25061.42357674  .00000008  00000+0  00000+0 0  9994", "line2": "2 44865  56.1450  78.4680 0017630 296.9110 113.0961  1.86231274 35427"}, {"OBJECT_NAME": "BEIDOU-3 G2 (C60)", "OBJECT_ID": "2020-017A", "EPOCH": "2025-03-02T09:37:38.622144", "MEAN_MOTION": 1.00272163, "ECCENTRICITY": 0.0003002, "INCLINATION": 2.6909, "RA_OF_ASC_NODE": 37.9508, "ARG_OF_PERICENTER": 299.8212, "MEAN_ANOMALY": 47.0905, "EPHEMERIS_TYPE": 0, "CLASSIFICATION_TYPE": "U", "NORAD_CAT_ID": 45344, "ELEMENT_SET_NO": 999, "REV_AT_EPOCH": 1854, "BSTAR": 0, "MEAN_MOTION_DOT": -1.43e-06, "MEAN_MOTION_DDOT": 0, "line1": "1 45344U 20017A   25061.40114146 -.00000143  00000+0  00000+0 0  9992", "line2": "2 45344   2.6909  37.9508 0003002 299.8212  47.0905  1.00272163 18543"}, {"OBJECT_NAME": "COSMOS 2545 (760)", "OBJECT_ID": "2020-018A", "EPOCH": "2025-03-01T05:03:21.163104", "MEAN_MOTION": 2.13102381, "ECCENTRICITY": 0.000867, "INCLINATION": 64.6251, "RA_OF_ASC_NODE": 328.9981, "ARG_OF_PERICENTER": 255.9849, "MEAN_ANOMALY": 103.9693, "EPHEMERIS_TYPE": 0, "CLASSIFICATION_TYPE": "U", "NORAD_CAT_ID": 45358, "ELEMENT_SET_NO": 999, "REV_AT_EPOCH": 3858, "BSTAR": 0, "MEAN_MOTION_DOT": -4.4e-07, "MEAN_MOTION_DDOT": 0, "line1": "1 45358U 20018A   25060.21066161 -.00000044  00000+0  00000+0 0  9999", "line2": "2 45358  64.6251 328.9981 0008670 255.9849 103.9693  2.13102381 38580"}, {"OBJECT_NAME": "BEIDOU-3 G3 (C61)", "OBJECT_ID": "2020-040A", "EPOCH": "2025-03-01T17:14:01.430304", "MEAN_MOTION": 1.00275197, "ECCENTRICITY": 0.0003106, "INCLINATION": 1.3092, "RA_OF_ASC_NODE": 60.9715, "ARG_OF_PERICENTER": 313.2194, "MEAN_ANOMALY": 154.5743, "EPHEMERIS_TYPE": 0, "CLASSIFICATION_TYPE": "U", "NORAD_CAT_ID": 45807, "ELEMENT_SET_NO": 999, "REV_AT_EPOCH": 1733, "BSTAR": 0, "MEAN_MOTION_DOT": -3.56e-06, "MEAN_MOTION_DDOT": 0, "line1": "1 45807U 20040A   25060.71807211 -.00000356  00000+0  00000+0 0  9993", "line2": "2 45807   1.3092  60.9715 0003106 313.2194 154.5743  1.00275197 17337"}, {"OBJECT_NAME": "GPS BIII-3  (PRN 23)", "OBJECT_ID": "2020-041A", "EPOCH": "2025-03-01T01:46:38.687232", "MEAN_MOTION": 2.00568104, "ECCENTRICITY": 0.0051097, "INCLINATION": 56.3356, "RA_OF_ASC_NODE": 47.3593, "ARG_OF_PERICENTER": 199.6348, "MEAN_ANOMALY": 157.1427, "EPHEMERIS_TYPE": 0, "CLASSIFICATION_TYPE": "U", "NORAD_CAT_ID": 45854, "ELEMENT_SET_NO": 999, "REV_AT_EPOCH": 3454, "BSTAR": 0, "MEAN_MOTION_DOT": -2.7e-07, "MEAN_MOTION_DDOT": 0, "line1": "1 45854U 20041A   25060.07405888 -.00000027  00000+0  00000+0 0  9994", "line2": "2 45854  56.3356  47.3593 0051097 199.6348 157.1427  2.00568104 34548"}, {"OBJECT_NAME": "GALAXY 30 (WAAS/PRN 135)", "OBJECT_ID": "2020-056C", "EPOCH": "2025-03-02T10:02:38.723136", "MEAN_MOTION": 1.00271004, "ECCENTRICITY": 0.000185, "INCLINATION": 0.0182, "RA_OF_ASC_NODE": 138.4229, "ARG_OF_PERICENTER": 209.4321, "MEAN_ANOMALY": 198.2287, "EPHEMERIS_TYPE": 0, "CLASSIFICATION_TYPE": "U", "NORAD_CAT_ID": 46114, "ELEMENT_SET_NO": 999, "REV_AT_EPOCH": 1667, "BSTAR": 0, "MEAN_MOTION_DOT": 3.4e-07, "MEAN_MOTION_DDOT": 0, "line1": "1 46114U 20056C   25061.41850374  .00000034  00000+0  00000+0 0  9990", "line2": "2 46114   0.0182 138.4229 0001850 209.4321 198.2287  1.00271004 16675"}]}